{"type": "FeatureCollection", "features": [ {"type": "Feature", "properties": {"norad_id": 40701, "name": "GAOFEN-8", "group": "resource", "lat": -15.305892156580859, "lon": -10.69116035721376, "alt_km": 452.9621586265466, "timestamp": "2025-12-18T23:35:48.704404+00:00", "meta": {"OBJECT_NAME": "GAOFEN-8", "OBJECT_ID": "2015-030A", "EPOCH": "2025-12-18T14:56:53.306880", "MEAN_MOTION": 15.38744753, "ECCENTRICITY": 0.00118937, "INCLINATION": 97.6901, "RA_OF_ASC_NODE": 171.0503, "ARG_OF_PERICENTER": 118.4601, "MEAN_ANOMALY": 241.7843, "EPHEMERIS_TYPE": 0, "CLASSIFICATION_TYPE": "U", "NORAD_CAT_ID": 40701, "ELEMENT_SET_NO": 999, "REV_AT_EPOCH": 58361, "BSTAR": 0.00046899896, "MEAN_MOTION_DOT": 0.00017935, "MEAN_MOTION_DDOT": 0}, "tle": {"line1": "1 40701U 15030A   25352.62283920  .00017935  00000+0  46900-3 0  9996", "line2": "2 40701  97.6901 171.0503 0011893 118.4601 241.7843 15.38744753583615"}}, "geometry": {"type": "Point", "coordinates": [-10.69116035721376, -15.305892156580859]}}, {"type": "Feature", "properties": {"norad_id": 40718, "name": "CARBONITE 1 (CBNT-1)", "group": "resource", "lat": -47.38017235283429, "lon": -177.86129364390794, "alt_km": 636.4995159456384, "timestamp": "2025-12-18T23:35:48.704414+00:00", "meta": {"OBJECT_NAME": "CARBONITE 1 (CBNT-1)", "OBJECT_ID": "2015-032D", "EPOCH": "2025-12-18T14:05:44.791872", "MEAN_MOTION": 14.82769676, "ECCENTRICITY": 0.00148219, "INCLINATION": 97.6395, "RA_OF_ASC_NODE": 173.3732, "ARG_OF_PERICENTER": 162.4589, "MEAN_ANOMALY": 197.714, "EPHEMERIS_TYPE": 0, "CLASSIFICATION_TYPE": "U", "NORAD_CAT_ID": 40718, "ELEMENT_SET_NO": 999, "REV_AT_EPOCH": 56257, "BSTAR": 0.00020788318, "MEAN_MOTION_DOT": 1.633e-05, "MEAN_MOTION_DDOT": 0}, "tle": {"line1": "1 40718U 15032D   25352.58732398  .00001633  00000+0  20788-3 0  9993", "line2": "2 40718  97.6395 173.3732 0014821 162.4589 197.7140 14.82769676562578"}}, "geometry": {"type": "Point", "coordinates": [-177.86129364390794, -47.38017235283429]}}, {"type": "Feature", "properties": {"norad_id": 40878, "name": "YAOGAN-27", "group": "resource", "lat": -48.58408799502179, "lon": 150.66335750956856, "alt_km": 1202.2444432807351, "timestamp": "2025-12-18T23:35:48.704424+00:00", "meta": {"OBJECT_NAME": "YAOGAN-27", "OBJECT_ID": "2015-040A", "EPOCH": "2025-12-18T15:08:07.149984", "MEAN_MOTION": 13.16062218, "ECCENTRICITY": 0.00075807, "INCLINATION": 100.1006, "RA_OF_ASC_NODE": 341.9843, "ARG_OF_PERICENTER": 272.5478, "MEAN_ANOMALY": 87.4768, "EPHEMERIS_TYPE": 0, "CLASSIFICATION_TYPE": "U", "NORAD_CAT_ID": 40878, "ELEMENT_SET_NO": 999, "REV_AT_EPOCH": 49391, "BSTAR": 0.00081834506, "MEAN_MOTION_DOT": 2.68e-06, "MEAN_MOTION_DDOT": 0}, "tle": {"line1": "1 40878U 15040A   25352.63063831  .00000268  00000+0  81835-3 0  9997", "line2": "2 40878 100.1006 341.9843 0007580 272.5478  87.4768 13.16062218493910"}}, "geometry": {"type": "Point", "coordinates": [150.66335750956856, -48.58408799502179]}}, {"type": "Feature", "properties": {"norad_id": 40894, "name": "GAOFEN-9 01", "group": "resource", "lat": -44.90261844544948, "lon": -156.03275050817535, "alt_km": 645.1295101454843, "timestamp": "2025-12-18T23:35:48.704436+00:00", "meta": {"OBJECT_NAME": "GAOFEN-9 01", "OBJECT_ID": "2015-047A", "EPOCH": "2025-12-18T14:29:00.061152", "MEAN_MOTION": 14.82436639, "ECCENTRICITY": 0.00279321, "INCLINATION": 97.6536, "RA_OF_ASC_NODE": 31.3056, "ARG_OF_PERICENTER": 15.5159, "MEAN_ANOMALY": 344.6905, "EPHEMERIS_TYPE": 0, "CLASSIFICATION_TYPE": "U", "NORAD_CAT_ID": 40894, "ELEMENT_SET_NO": 999, "REV_AT_EPOCH": 55343, "BSTAR": 0.00011822688, "MEAN_MOTION_DOT": 9.03e-06, "MEAN_MOTION_DDOT": 0}, "tle": {"line1": "1 40894U 15047A   25352.60347293  .00000903  00000+0  11823-3 0  9992", "line2": "2 40894  97.6536  31.3056 0027932  15.5159 344.6905 14.82436639553437"}}, "geometry": {"type": "Point", "coordinates": [-156.03275050817535, -44.90261844544948]}}, {"type": "Feature", "properties": {"norad_id": 41026, "name": "YAOGAN-28", "group": "resource", "lat": -58.20777254497928, "lon": -61.304205416543525, "alt_km": 505.45784852252837, "timestamp": "2025-12-18T23:35:48.704446+00:00", "meta": {"OBJECT_NAME": "YAOGAN-28", "OBJECT_ID": "2015-064A", "EPOCH": "2025-12-18T14:40:34.663584", "MEAN_MOTION": 15.24447365, "ECCENTRICITY": 0.00125864, "INCLINATION": 97.2807, "RA_OF_ASC_NODE": 130.2381, "ARG_OF_PERICENTER": 107.3383, "MEAN_ANOMALY": 252.9232, "EPHEMERIS_TYPE": 0, "CLASSIFICATION_TYPE": "U", "NORAD_CAT_ID": 41026, "ELEMENT_SET_NO": 999, "REV_AT_EPOCH": 56314, "BSTAR": 0.0002880424, "MEAN_MOTION_DOT": 7.016e-05, "MEAN_MOTION_DDOT": 0}, "tle": {"line1": "1 41026U 15064A   25352.61151231  .00007016  00000+0  28804-3 0  9994", "line2": "2 41026  97.2807 130.2381 0012586 107.3383 252.9232 15.24447365563148"}}, "geometry": {"type": "Point", "coordinates": [-61.304205416543525, -58.20777254497928]}}, {"type": "Feature", "properties": {"norad_id": 41038, "name": "YAOGAN-29", "group": "resource", "lat": 55.379435344664614, "lon": -152.03833910176297, "alt_km": 614.8519118758222, "timestamp": "2025-12-18T23:35:48.704456+00:00", "meta": {"OBJECT_NAME": "YAOGAN-29", "OBJECT_ID": "2015-069A", "EPOCH": "2025-12-18T14:56:36.790656", "MEAN_MOTION": 14.8288826, "ECCENTRICITY": 3.73e-05, "INCLINATION": 98.0215, "RA_OF_ASC_NODE": 15.8137, "ARG_OF_PERICENTER": 190.7353, "MEAN_ANOMALY": 169.3853, "EPHEMERIS_TYPE": 0, "CLASSIFICATION_TYPE": "U", "NORAD_CAT_ID": 41038, "ELEMENT_SET_NO": 999, "REV_AT_EPOCH": 54386, "BSTAR": 5.0388492e-05, "MEAN_MOTION_DOT": 3.54e-06, "MEAN_MOTION_DDOT": 0}, "tle": {"line1": "1 41038U 15069A   25352.62264804  .00000354  00000+0  50388-4 0  9995", "line2": "2 41038  98.0215  15.8137 0000373 190.7353 169.3853 14.82888260543867"}}, "geometry": {"type": "Point", "coordinates": [-152.03833910176297, 55.379435344664614]}}, {"type": "Feature", "properties": {"norad_id": 41167, "name": "KENT RIDGE 1", "group": "resource", "lat": -14.933647728574826, "lon": 70.84027441630894, "alt_km": 495.7202267037619, "timestamp": "2025-12-18T23:35:48.704466+00:00", "meta": {"OBJECT_NAME": "KENT RIDGE 1", "OBJECT_ID": "2015-077B", "EPOCH": "2025-12-18T16:08:28.828896", "MEAN_MOTION": 15.21681718, "ECCENTRICITY": 0.00085176, "INCLINATION": 14.978, "RA_OF_ASC_NODE": 167.1168, "ARG_OF_PERICENTER": 214.7551, "MEAN_ANOMALY": 145.2215, "EPHEMERIS_TYPE": 0, "CLASSIFICATION_TYPE": "U", "NORAD_CAT_ID": 41167, "ELEMENT_SET_NO": 999, "REV_AT_EPOCH": 55354, "BSTAR": 0.00013864268, "MEAN_MOTION_DOT": 3.985e-05, "MEAN_MOTION_DDOT": 0}, "tle": {"line1": "1 41167U 15077B   25352.67255589  .00003985  00000+0  13864-3 0  9992", "line2": "2 41167  14.9780 167.1168 0008517 214.7551 145.2215 15.21681718553548"}}, "geometry": {"type": "Point", "coordinates": [70.84027441630894, -14.933647728574826]}}, {"type": "Feature", "properties": {"norad_id": 41194, "name": "GAOFEN-4", "group": "resource", "lat": 0.16846147977412532, "lon": -172.50341313317185, "alt_km": 35773.559987677676, "timestamp": "2025-12-18T23:35:48.704479+00:00", "meta": {"OBJECT_NAME": "GAOFEN-4", "OBJECT_ID": "2015-083A", "EPOCH": "2025-12-18T16:24:55.283616", "MEAN_MOTION": 1.00273625, "ECCENTRICITY": 0.00029313, "INCLINATION": 0.1854, "RA_OF_ASC_NODE": 81.7464, "ARG_OF_PERICENTER": 93.8356, "MEAN_ANOMALY": 263.8991, "EPHEMERIS_TYPE": 0, "CLASSIFICATION_TYPE": "U", "NORAD_CAT_ID": 41194, "ELEMENT_SET_NO": 999, "REV_AT_EPOCH": 3671, "BSTAR": 0, "MEAN_MOTION_DOT": -3.1e-06, "MEAN_MOTION_DDOT": 0}, "tle": {"line1": "1 41194U 15083A   25352.68397319 -.00000310  00000+0  00000+0 0  9992", "line2": "2 41194   0.1854  81.7464 0002931  93.8356 263.8991  1.00273625 36719"}}, "geometry": {"type": "Point", "coordinates": [-172.50341313317185, 0.16846147977412532]}}, {"type": "Feature", "properties": {"norad_id": 41240, "name": "JASON-3", "group": "resource", "lat": 66.0276828152503, "lon": -125.50477655040586, "alt_km": 1309.1846187080291, "timestamp": "2025-12-18T23:35:48.704490+00:00", "meta": {"OBJECT_NAME": "JASON-3", "OBJECT_ID": "2016-002A", "EPOCH": "2025-12-18T13:48:39.551328", "MEAN_MOTION": 12.87626828, "ECCENTRICITY": 0.00071978, "INCLINATION": 66.0397, "RA_OF_ASC_NODE": 145.5551, "ARG_OF_PERICENTER": 271.1398, "MEAN_ANOMALY": 88.8796, "EPHEMERIS_TYPE": 0, "CLASSIFICATION_TYPE": "U", "NORAD_CAT_ID": 41240, "ELEMENT_SET_NO": 999, "REV_AT_EPOCH": 46399, "BSTAR": 5.1972699e-05, "MEAN_MOTION_DOT": -4.9e-07, "MEAN_MOTION_DDOT": 0}, "tle": {"line1": "1 41240U 16002A   25352.57545777 -.00000049  00000+0  51973-4 0  9996", "line2": "2 41240  66.0397 145.5551 0007197 271.1398  88.8796 12.87626828463992"}}, "geometry": {"type": "Point", "coordinates": [-125.50477655040586, 66.0276828152503]}}, {"type": "Feature", "properties": {"norad_id": 41335, "name": "SENTINEL-3A", "group": "resource", "lat": 2.694229209917331, "lon": 57.498851016686245, "alt_km": 805.2295464660574, "timestamp": "2025-12-18T23:35:48.704501+00:00", "meta": {"OBJECT_NAME": "SENTINEL-3A", "OBJECT_ID": "2016-011A", "EPOCH": "2025-12-18T15:10:06.663648", "MEAN_MOTION": 14.26732921, "ECCENTRICITY": 9.132e-05, "INCLINATION": 98.6308, "RA_OF_ASC_NODE": 57.5621, "ARG_OF_PERICENTER": 92.9961, "MEAN_ANOMALY": 267.1324, "EPHEMERIS_TYPE": 0, "CLASSIFICATION_TYPE": "U", "NORAD_CAT_ID": 41335, "ELEMENT_SET_NO": 999, "REV_AT_EPOCH": 51231, "BSTAR": 6.289123e-05, "MEAN_MOTION_DOT": 1.08e-06, "MEAN_MOTION_DDOT": 0}, "tle": {"line1": "1 41335U 16011A   25352.63202157  .00000108  00000+0  62891-4 0  9996", "line2": "2 41335  98.6308  57.5621 0000913  92.9961 267.1324 14.26732921512311"}}, "geometry": {"type": "Point", "coordinates": [57.498851016686245, 2.694229209917331]}}]}